STARLINK-35291          
1 66083U 25235AB  25312.50001156 -.02036644  00000+0 -35805-1 0  9999
2 66083  53.1607  90.7483 0001270  83.3318 165.0835 15.53123990  4329
STARLINK-35379          
1 66084U 25235AC  25312.50001156 -.02029199  00000+0 -35665-1 0  9991
2 66084  53.1609  90.7429 0001187  76.4557 173.8762 15.53119910  4375
STARLINK-35370          
1 66085U 25235AD  25312.50001156 -.02027501  00000+0 -35633-1 0  9992
2 66085  53.1610  90.7392 0001316  87.0745 165.1771 15.53117531  4324
STARLINK-35596          
1 66086U 25236A   25312.43842735  .00222748  00000+0  14822-2 0  9996
2 66086  53.1568 310.4228 0001428  43.0297 317.0834 15.74238479  4332
STARLINK-35563          
1 66087U 25236B   25312.43809115  .00282243  00000+0  18622-2 0  9990
2 66087  53.1566 310.4205 0001572 109.9433 250.1756 15.74255558  4270
STARLINK-35461          
1 66088U 25236C   25312.43741632  .00169021  00000+0  11341-2 0  9999
2 66088  53.1569 310.4160 0002354  53.6587 306.4649 15.74214352  4271
STARLINK-35571          
1 66089U 25236D   25312.43775556  .00175247  00000+0  11749-2 0  9991
2 66089  53.1570 310.4187 0002478  64.5296 295.5980 15.74211198  4336
STARLINK-35570          
1 66090U 25236E   25312.43707348  .00187668  00000+0  12547-2 0  9994
2 66090  53.1568 310.4141 0000847 136.9938 223.1148 15.74237081  4332
STARLINK-35532          
1 66091U 25236F   25312.43673816  .00221351  00000+0  14735-2 0  9996
2 66091  53.1568 310.4115 0000564 113.8087 246.2992 15.74231844  4333
STARLINK-35527          
1 66092U 25236G   25312.43639951  .00153276  00000+0  10309-2 0  9992
2 66092  53.1569 310.4091 0001482 130.6174 229.4974 15.74212285  4333
STARLINK-35500          
1 66093U 25236H   25312.43606243  .00235739  00000+0  15660-2 0  9991
2 66093  53.1566 310.4068 0001288  55.0389 305.0752 15.74237178  4330
STARLINK-35528          
1 66094U 25236J   25312.43572316  .00198239  00000+0  13242-2 0  9992
2 66094  53.1567 310.4041 0001059  81.0337 279.0803 15.74225170  4337
