CCSDS_OMM_VERS = 2.0
CREATION_DATE  = 
ORIGINATOR     = 

OBJECT_NAME    = STARLINK-35291
OBJECT_ID      = 2025-235AB
CENTER_NAME    = EARTH
REF_FRAME      = TEME
TIME_SYSTEM    = UTC
MEAN_ELEMENT_THEORY = SGP/SGP4

EPOCH          = 2025-11-08T12:00:00.998784
MEAN_MOTION    = 15.53123990
ECCENTRICITY   = .000127
INCLINATION    = 53.1607
RA_OF_ASC_NODE = 90.7483
ARG_OF_PERICENTER = 83.3318
MEAN_ANOMALY   = 165.0835

EPHEMERIS_TYPE = 0
CLASSIFICATION_TYPE = U
NORAD_CAT_ID   = 66083
ELEMENT_SET_NO = 999
REV_AT_EPOCH   = 432
BSTAR          = -.35805E-1
MEAN_MOTION_DOT = -.2036644E-1
MEAN_MOTION_DDOT = 0

CCSDS_OMM_VERS = 2.0
CREATION_DATE  = 
ORIGINATOR     = 

OBJECT_NAME    = STARLINK-35379
OBJECT_ID      = 2025-235AC
CENTER_NAME    = EARTH
REF_FRAME      = TEME
TIME_SYSTEM    = UTC
MEAN_ELEMENT_THEORY = SGP/SGP4

EPOCH          = 2025-11-08T12:00:00.998784
MEAN_MOTION    = 15.53119910
ECCENTRICITY   = .0001187
INCLINATION    = 53.1609
RA_OF_ASC_NODE = 90.7429
ARG_OF_PERICENTER = 76.4557
MEAN_ANOMALY   = 173.8762

EPHEMERIS_TYPE = 0
CLASSIFICATION_TYPE = U
NORAD_CAT_ID   = 66084
ELEMENT_SET_NO = 999
REV_AT_EPOCH   = 437
BSTAR          = -.35665E-1
MEAN_MOTION_DOT = -.2029199E-1
MEAN_MOTION_DDOT = 0

CCSDS_OMM_VERS = 2.0
CREATION_DATE  = 
ORIGINATOR     = 

OBJECT_NAME    = STARLINK-35370
OBJECT_ID      = 2025-235AD
CENTER_NAME    = EARTH
REF_FRAME      = TEME
TIME_SYSTEM    = UTC
MEAN_ELEMENT_THEORY = SGP/SGP4

EPOCH          = 2025-11-08T12:00:00.998784
MEAN_MOTION    = 15.53117531
ECCENTRICITY   = .0001316
INCLINATION    = 53.1610
RA_OF_ASC_NODE = 90.7392
ARG_OF_PERICENTER = 87.0745
MEAN_ANOMALY   = 165.1771

EPHEMERIS_TYPE = 0
CLASSIFICATION_TYPE = U
NORAD_CAT_ID   = 66085
ELEMENT_SET_NO = 999
REV_AT_EPOCH   = 432
BSTAR          = -.35633E-1
MEAN_MOTION_DOT = -.2027501E-1
MEAN_MOTION_DDOT = 0

CCSDS_OMM_VERS = 2.0
CREATION_DATE  = 
ORIGINATOR     = 

OBJECT_NAME    = STARLINK-35596
OBJECT_ID      = 2025-236A
CENTER_NAME    = EARTH
REF_FRAME      = TEME
TIME_SYSTEM    = UTC
MEAN_ELEMENT_THEORY = SGP/SGP4

EPOCH          = 2025-11-08T10:31:20.123040
MEAN_MOTION    = 15.74238479
ECCENTRICITY   = .0001428
INCLINATION    = 53.1568
RA_OF_ASC_NODE = 310.4228
ARG_OF_PERICENTER = 43.0297
MEAN_ANOMALY   = 317.0834

EPHEMERIS_TYPE = 0
CLASSIFICATION_TYPE = U
NORAD_CAT_ID   = 66086
ELEMENT_SET_NO = 999
REV_AT_EPOCH   = 433
BSTAR          = .14822E-2
MEAN_MOTION_DOT = .222748E-2
MEAN_MOTION_DDOT = 0

CCSDS_OMM_VERS = 2.0
CREATION_DATE  = 
ORIGINATOR     = 

OBJECT_NAME    = STARLINK-35563
OBJECT_ID      = 2025-236B
CENTER_NAME    = EARTH
REF_FRAME      = TEME
TIME_SYSTEM    = UTC
MEAN_ELEMENT_THEORY = SGP/SGP4

EPOCH          = 2025-11-08T10:30:51.075360
MEAN_MOTION    = 15.74255558
ECCENTRICITY   = .0001572
INCLINATION    = 53.1566
RA_OF_ASC_NODE = 310.4205
ARG_OF_PERICENTER = 109.9433
MEAN_ANOMALY   = 250.1756

EPHEMERIS_TYPE = 0
CLASSIFICATION_TYPE = U
NORAD_CAT_ID   = 66087
ELEMENT_SET_NO = 999
REV_AT_EPOCH   = 427
BSTAR          = .18622E-2
MEAN_MOTION_DOT = .282243E-2
MEAN_MOTION_DDOT = 0

CCSDS_OMM_VERS = 2.0
CREATION_DATE  = 
ORIGINATOR     = 

OBJECT_NAME    = STARLINK-35461
OBJECT_ID      = 2025-236C
CENTER_NAME    = EARTH
REF_FRAME      = TEME
TIME_SYSTEM    = UTC
MEAN_ELEMENT_THEORY = SGP/SGP4

EPOCH          = 2025-11-08T10:29:52.770048
MEAN_MOTION    = 15.74214352
ECCENTRICITY   = .0002354
INCLINATION    = 53.1569
RA_OF_ASC_NODE = 310.4160
ARG_OF_PERICENTER = 53.6587
MEAN_ANOMALY   = 306.4649

EPHEMERIS_TYPE = 0
CLASSIFICATION_TYPE = U
NORAD_CAT_ID   = 66088
ELEMENT_SET_NO = 999
REV_AT_EPOCH   = 427
BSTAR          = .11341E-2
MEAN_MOTION_DOT = .169021E-2
MEAN_MOTION_DDOT = 0

CCSDS_OMM_VERS = 2.0
CREATION_DATE  = 
ORIGINATOR     = 

OBJECT_NAME    = STARLINK-35571
OBJECT_ID      = 2025-236D
CENTER_NAME    = EARTH
REF_FRAME      = TEME
TIME_SYSTEM    = UTC
MEAN_ELEMENT_THEORY = SGP/SGP4

EPOCH          = 2025-11-08T10:30:22.080384
MEAN_MOTION    = 15.74211198
ECCENTRICITY   = .0002478
INCLINATION    = 53.1570
RA_OF_ASC_NODE = 310.4187
ARG_OF_PERICENTER = 64.5296
MEAN_ANOMALY   = 295.5980

EPHEMERIS_TYPE = 0
CLASSIFICATION_TYPE = U
NORAD_CAT_ID   = 66089
ELEMENT_SET_NO = 999
REV_AT_EPOCH   = 433
BSTAR          = .11749E-2
MEAN_MOTION_DOT = .175247E-2
MEAN_MOTION_DDOT = 0

CCSDS_OMM_VERS = 2.0
CREATION_DATE  = 
ORIGINATOR     = 

OBJECT_NAME    = STARLINK-35570
OBJECT_ID      = 2025-236E
CENTER_NAME    = EARTH
REF_FRAME      = TEME
TIME_SYSTEM    = UTC
MEAN_ELEMENT_THEORY = SGP/SGP4

EPOCH          = 2025-11-08T10:29:23.148672
MEAN_MOTION    = 15.74237081
ECCENTRICITY   = .0000847
INCLINATION    = 53.1568
RA_OF_ASC_NODE = 310.4141
ARG_OF_PERICENTER = 136.9938
MEAN_ANOMALY   = 223.1148

EPHEMERIS_TYPE = 0
CLASSIFICATION_TYPE = U
NORAD_CAT_ID   = 66090
ELEMENT_SET_NO = 999
REV_AT_EPOCH   = 433
BSTAR          = .12547E-2
MEAN_MOTION_DOT = .187668E-2
MEAN_MOTION_DDOT = 0

CCSDS_OMM_VERS = 2.0
CREATION_DATE  = 
ORIGINATOR     = 

OBJECT_NAME    = STARLINK-35532
OBJECT_ID      = 2025-236F
CENTER_NAME    = EARTH
REF_FRAME      = TEME
TIME_SYSTEM    = UTC
MEAN_ELEMENT_THEORY = SGP/SGP4

EPOCH          = 2025-11-08T10:28:54.177024
MEAN_MOTION    = 15.74231844
ECCENTRICITY   = .0000564
INCLINATION    = 53.1568
RA_OF_ASC_NODE = 310.4115
ARG_OF_PERICENTER = 113.8087
MEAN_ANOMALY   = 246.2992

EPHEMERIS_TYPE = 0
CLASSIFICATION_TYPE = U
NORAD_CAT_ID   = 66091
ELEMENT_SET_NO = 999
REV_AT_EPOCH   = 433
BSTAR          = .14735E-2
MEAN_MOTION_DOT = .221351E-2
MEAN_MOTION_DDOT = 0

CCSDS_OMM_VERS = 2.0
CREATION_DATE  = 
ORIGINATOR     = 

OBJECT_NAME    = STARLINK-35527
OBJECT_ID      = 2025-236G
CENTER_NAME    = EARTH
REF_FRAME      = TEME
TIME_SYSTEM    = UTC
MEAN_ELEMENT_THEORY = SGP/SGP4

EPOCH          = 2025-11-08T10:28:24.917664
MEAN_MOTION    = 15.74212285
ECCENTRICITY   = .0001482
INCLINATION    = 53.1569
RA_OF_ASC_NODE = 310.4091
ARG_OF_PERICENTER = 130.6174
MEAN_ANOMALY   = 229.4974

EPHEMERIS_TYPE = 0
CLASSIFICATION_TYPE = U
NORAD_CAT_ID   = 66092
ELEMENT_SET_NO = 999
REV_AT_EPOCH   = 433
BSTAR          = .10309E-2
MEAN_MOTION_DOT = .153276E-2
MEAN_MOTION_DDOT = 0

CCSDS_OMM_VERS = 2.0
CREATION_DATE  = 
ORIGINATOR     = 

OBJECT_NAME    = STARLINK-35500
OBJECT_ID      = 2025-236H
CENTER_NAME    = EARTH
REF_FRAME      = TEME
TIME_SYSTEM    = UTC
MEAN_ELEMENT_THEORY = SGP/SGP4

EPOCH          = 2025-11-08T10:27:55.793952
MEAN_MOTION    = 15.74237178
ECCENTRICITY   = .0001288
INCLINATION    = 53.1566
RA_OF_ASC_NODE = 310.4068
ARG_OF_PERICENTER = 55.0389
MEAN_ANOMALY   = 305.0752

EPHEMERIS_TYPE = 0
CLASSIFICATION_TYPE = U
NORAD_CAT_ID   = 66093
ELEMENT_SET_NO = 999
REV_AT_EPOCH   = 433
BSTAR          = .1566E-2
MEAN_MOTION_DOT = .235739E-2
MEAN_MOTION_DDOT = 0

CCSDS_OMM_VERS = 2.0
CREATION_DATE  = 
ORIGINATOR     = 

OBJECT_NAME    = STARLINK-35528
OBJECT_ID      = 2025-236J
CENTER_NAME    = EARTH
REF_FRAME      = TEME
TIME_SYSTEM    = UTC
MEAN_ELEMENT_THEORY = SGP/SGP4

EPOCH          = 2025-11-08T10:27:26.481024
MEAN_MOTION    = 15.74225170
ECCENTRICITY   = .0001059
INCLINATION    = 53.1567
RA_OF_ASC_NODE = 310.4041
ARG_OF_PERICENTER = 81.0337
MEAN_ANOMALY   = 279.0803

EPHEMERIS_TYPE = 0
CLASSIFICATION_TYPE = U
NORAD_CAT_ID   = 66094
ELEMENT_SET_NO = 999
REV_AT_EPOCH   = 433
BSTAR          = .13242E-2
MEAN_MOTION_DOT = .198239E-2
MEAN_MOTION_DDOT = 0

